[{"OBJECT_NAME":"SAOCOM 1B","OBJECT_ID":"2020-059A","EPOCH":"2026-03-06T22:57:01.124064","MEAN_MOTION":14.82173062,"ECCENTRICITY":0.00015046,"INCLINATION":97.8885,"RA_OF_ASC_NODE":253.2654,"ARG_OF_PERICENTER":81.2285,"MEAN_ANOMALY":278.9098,"EPHEMERIS_TYPE":0,"CLASSIFICATION_TYPE":"U","NORAD_CAT_ID":46265,"ELEMENT_SET_NO":999,"REV_AT_EPOCH":29834,"BSTAR":0.00017595012,"MEAN_MOTION_DOT":1.349e-5,"MEAN_MOTION_DDOT":0},{"OBJECT_NAME":"SL-14 R\/B","OBJECT_ID":"1985-108B","EPOCH":"2026-03-09T21:05:05.780832","MEAN_MOTION":14.85518992,"ECCENTRICITY":0.00175913,"INCLINATION":82.5063,"RA_OF_ASC_NODE":0.8915,"ARG_OF_PERICENTER":280.8668,"MEAN_ANOMALY":141.1022,"EPHEMERIS_TYPE":0,"CLASSIFICATION_TYPE":"U","NORAD_CAT_ID":16263,"ELEMENT_SET_NO":999,"REV_AT_EPOCH":15595,"BSTAR":8.2154838e-5,"MEAN_MOTION_DOT":7.35e-6,"MEAN_MOTION_DDOT":0}]
